{
  "type": "FeatureCollection",
  "features": [
    {
      "type": "Feature",
      "properties": {
        "norad_id": 24876,
        "name": "GPS BIIR-2  (PRN 13)",
        "group": "gps-ops",
        "lat": 55.791699834776054,
        "lon": -158.92121929475618,
        "alt_km": 19967.074733736546,
        "timestamp": "2025-12-11T20:41:15.339901+00:00",
        "meta_object_name": "GPS BIIR-2  (PRN 13)",
        "meta_object_id": "1997-035A",
        "meta_epoch": "2025-12-10T17:43:14.126880",
        "meta_mean_motion": 2.00563589,
        "meta_eccentricity": 0.0096757,
        "meta_inclination": 55.8943,
        "meta_ra_of_asc_node": 105.9471,
        "meta_arg_of_pericenter": 57.0036,
        "meta_mean_anomaly": 303.9018,
        "meta_ephemeris_type": 0,
        "meta_classification_type": "U",
        "meta_norad_cat_id": 24876,
        "meta_element_set_no": 999,
        "meta_rev_at_epoch": 20817,
        "meta_bstar": 0,
        "meta_mean_motion_dot": 2.2e-07,
        "meta_mean_motion_ddot": 0,
        "tle_line1": "1 24876U 97035A   25344.73835795  .00000022  00000+0  00000+0 0  9998",
        "tle_line2": "2 24876  55.8943 105.9471 0096757  57.0036 303.9018  2.00563589208175"
      },
      "geometry": {
        "type": "Point",
        "coordinates": [
          -158.92121929475618,
          55.791699834776054
        ]
      }
    },
    {
      "type": "Feature",
      "properties": {
        "norad_id": 26360,
        "name": "GPS BIIR-4  (PRN 20)",
        "group": "gps-ops",
        "lat": -3.092377909492184,
        "lon": -150.9478205257104,
        "alt_km": 20127.64100008386,
        "timestamp": "2025-12-11T20:41:15.339928+00:00",
        "meta_object_name": "GPS BIIR-4  (PRN 20)",
        "meta_object_id": "2000-025A",
        "meta_epoch": "2025-12-11T15:38:07.687104",
        "meta_mean_motion": 2.0056778,
        "meta_eccentricity": 0.00388662,
        "meta_inclination": 55.0445,
        "meta_ra_of_asc_node": 26.8818,
        "meta_arg_of_pericenter": 241.8871,
        "meta_mean_anomaly": 150.2644,
        "meta_ephemeris_type": 0,
        "meta_classification_type": "U",
        "meta_norad_cat_id": 26360,
        "meta_element_set_no": 999,
        "meta_rev_at_epoch": 18751,
        "meta_bstar": 0,
        "meta_mean_motion_dot": -1e-06,
        "meta_mean_motion_ddot": 0,
        "tle_line1": "1 26360U 00025A   25345.65147786 -.00000100  00000+0  00000+0 0  9997",
        "tle_line2": "2 26360  55.0445  26.8818 0038866 241.8871 150.2644  2.00567780187516"
      },
      "geometry": {
        "type": "Point",
        "coordinates": [
          -150.9478205257104,
          -3.092377909492184
        ]
      }
    },
    {
      "type": "Feature",
      "properties": {
        "norad_id": 26407,
        "name": "GPS BIIR-5  (PRN 22)",
        "group": "gps-ops",
        "lat": 20.315118071016535,
        "lon": -122.30384699414762,
        "alt_km": 20136.261051169444,
        "timestamp": "2025-12-11T20:41:15.339945+00:00",
        "meta_object_name": "GPS BIIR-5  (PRN 22)",
        "meta_object_id": "2000-040A",
        "meta_epoch": "2025-12-11T13:24:36.235008",
        "meta_mean_motion": 2.00567937,
        "meta_eccentricity": 0.01260768,
        "meta_inclination": 54.891,
        "meta_ra_of_asc_node": 222.6159,
        "meta_arg_of_pericenter": 301.789,
        "meta_mean_anomaly": 223.0098,
        "meta_ephemeris_type": 0,
        "meta_classification_type": "U",
        "meta_norad_cat_id": 26407,
        "meta_element_set_no": 999,
        "meta_rev_at_epoch": 18618,
        "meta_bstar": 0,
        "meta_mean_motion_dot": 3e-08,
        "meta_mean_motion_ddot": 0,
        "tle_line1": "1 26407U 00040A   25345.55875272  .00000003  00000+0  00000+0 0  9994",
        "tle_line2": "2 26407  54.8910 222.6159 0126076 301.7890 223.0098  2.00567937186182"
      },
      "geometry": {
        "type": "Point",
        "coordinates": [
          -122.30384699414762,
          20.315118071016535
        ]
      }
    },
    {
      "type": "Feature",
      "properties": {
        "norad_id": 27663,
        "name": "GPS BIIR-8  (PRN 16)",
        "group": "gps-ops",
        "lat": 15.289783303811921,
        "lon": 31.35433545135308,
        "alt_km": 20304.881556379627,
        "timestamp": "2025-12-11T20:41:15.339958+00:00",
        "meta_object_name": "GPS BIIR-8  (PRN 16)",
        "meta_object_id": "2003-005A",
        "meta_epoch": "2025-12-11T15:45:05.050944",
        "meta_mean_motion": 2.00570963,
        "meta_eccentricity": 0.01474213,
        "meta_inclination": 54.9236,
        "meta_ra_of_asc_node": 222.4214,
        "meta_arg_of_pericenter": 51.7853,
        "meta_mean_anomaly": 319.3276,
        "meta_ephemeris_type": 0,
        "meta_classification_type": "U",
        "meta_norad_cat_id": 27663,
        "meta_element_set_no": 999,
        "meta_rev_at_epoch": 16755,
        "meta_bstar": 0,
        "meta_mean_motion_dot": 4e-08,
        "meta_mean_motion_ddot": 0,
        "tle_line1": "1 27663U 03005A   25345.65630846  .00000004  00000+0  00000+0 0  9991",
        "tle_line2": "2 27663  54.9236 222.4214 0147421  51.7853 319.3276  2.00570963167557"
      },
      "geometry": {
        "type": "Point",
        "coordinates": [
          31.35433545135308,
          15.289783303811921
        ]
      }
    },
    {
      "type": "Feature",
      "properties": {
        "norad_id": 28190,
        "name": "GPS BIIR-11 (PRN 19)",
        "group": "gps-ops",
        "lat": -32.51543582732181,
        "lon": -103.26971286382151,
        "alt_km": 20438.696635632452,
        "timestamp": "2025-12-11T20:41:15.339970+00:00",
        "meta_object_name": "GPS BIIR-11 (PRN 19)",
        "meta_object_id": "2004-009A",
        "meta_epoch": "2025-12-10T22:23:41.078112",
        "meta_mean_motion": 2.00560808,
        "meta_eccentricity": 0.0108323,
        "meta_inclination": 54.9873,
        "meta_ra_of_asc_node": 283.2917,
        "meta_arg_of_pericenter": 167.6172,
        "meta_mean_anomaly": 200.0934,
        "meta_ephemeris_type": 0,
        "meta_classification_type": "U",
        "meta_norad_cat_id": 28190,
        "meta_element_set_no": 999,
        "meta_rev_at_epoch": 15917,
        "meta_bstar": 0,
        "meta_mean_motion_dot": -6.8e-07,
        "meta_mean_motion_ddot": 0,
        "tle_line1": "1 28190U 04009A   25344.93311433 -.00000068  00000+0  00000+0 0  9991",
        "tle_line2": "2 28190  54.9873 283.2917 0108323 167.6172 200.0934  2.00560808159177"
      },
      "geometry": {
        "type": "Point",
        "coordinates": [
          -103.26971286382151,
          -32.51543582732181
        ]
      }
    },
    {
      "type": "Feature",
      "properties": {
        "norad_id": 28474,
        "name": "GPS BIIR-13 (PRN 02)",
        "group": "gps-ops",
        "lat": 16.56898761749926,
        "lon": -15.646314545065012,
        "alt_km": 20026.917081903026,
        "timestamp": "2025-12-11T20:41:15.339982+00:00",
        "meta_object_name": "GPS BIIR-13 (PRN 02)",
        "meta_object_id": "2004-045A",
        "meta_epoch": "2025-12-10T20:11:07.899360",
        "meta_mean_motion": 2.00569385,
        "meta_eccentricity": 0.0170728,
        "meta_inclination": 55.2416,
        "meta_ra_of_asc_node": 332.4821,
        "meta_arg_of_pericenter": 309.1641,
        "meta_mean_anomaly": 52.133,
        "meta_ephemeris_type": 0,
        "meta_classification_type": "U",
        "meta_norad_cat_id": 28474,
        "meta_element_set_no": 999,
        "meta_rev_at_epoch": 15465,
        "meta_bstar": 0,
        "meta_mean_motion_dot": -8.5e-07,
        "meta_mean_motion_ddot": 0,
        "tle_line1": "1 28474U 04045A   25344.84106365 -.00000085  00000+0  00000+0 0  9991",
        "tle_line2": "2 28474  55.2416 332.4821 0170728 309.1641  52.1330  2.00569385154655"
      },
      "geometry": {
        "type": "Point",
        "coordinates": [
          -15.646314545065012,
          16.56898761749926
        ]
      }
    },
    {
      "type": "Feature",
      "properties": {
        "norad_id": 28874,
        "name": "GPS BIIRM-1 (PRN 17)",
        "group": "gps-ops",
        "lat": -17.579329082576223,
        "lon": -92.07201502588023,
        "alt_km": 19933.011218117175,
        "timestamp": "2025-12-11T20:41:15.339994+00:00",
        "meta_object_name": "GPS BIIRM-1 (PRN 17)",
        "meta_object_id": "2005-038A",
        "meta_epoch": "2025-12-10T14:00:21.521088",
        "meta_mean_motion": 2.00578486,
        "meta_eccentricity": 0.0131701,
        "meta_inclination": 55.0338,
        "meta_ra_of_asc_node": 280.7877,
        "meta_arg_of_pericenter": 293.4518,
        "meta_mean_anomaly": 200.7371,
        "meta_ephemeris_type": 0,
        "meta_classification_type": "U",
        "meta_norad_cat_id": 28874,
        "meta_element_set_no": 999,
        "meta_rev_at_epoch": 14805,
        "meta_bstar": 0,
        "meta_mean_motion_dot": -6.4e-07,
        "meta_mean_motion_ddot": 0,
        "tle_line1": "1 28874U 05038A   25344.58358242 -.00000064  00000+0  00000+0 0  9999",
        "tle_line2": "2 28874  55.0338 280.7877 0131701 293.4518 200.7371  2.00578486148057"
      },
      "geometry": {
        "type": "Point",
        "coordinates": [
          -92.07201502588023,
          -17.579329082576223
        ]
      }
    }
  ]
}